{
  "type": "FeatureCollection",
  "features": [
    {
      "type": "Feature",
      "properties": {
        "norad_id": 38067,
        "name": "COSMOS 2251 DEB",
        "group": "cosmos-2251-debris",
        "lat": -55.500312298691185,
        "lon": -105.8131648006358,
        "alt_km": 725.2083411499425,
        "timestamp": "2025-12-10T11:33:53.782027+00:00",
        "meta_object_name": "COSMOS 2251 DEB",
        "meta_object_id": "1993-036BRZ",
        "meta_epoch": "2025-11-29T04:46:36.876288",
        "meta_mean_motion": 14.61044936,
        "meta_eccentricity": 0.00691529,
        "meta_inclination": 74.017,
        "meta_ra_of_asc_node": 300.4181,
        "meta_arg_of_pericenter": 91.9303,
        "meta_mean_anomaly": 288.2542,
        "meta_ephemeris_type": 0,
        "meta_classification_type": "U",
        "meta_norad_cat_id": 38067,
        "meta_element_set_no": 999,
        "meta_rev_at_epoch": 62358,
        "meta_bstar": 0.00037425936,
        "meta_mean_motion_dot": 1.87e-05,
        "meta_mean_motion_ddot": 0,
        "tle_line1": "1 38067U 93036BRZ 25333.19903792  .00001870  00000+0  37426-3 0  9991",
        "tle_line2": "2 38067  74.0170 300.4181 0069152  91.9303 288.2542 14.61044936623583"
      },
      "geometry": {
        "type": "Point",
        "coordinates": [
          -105.8131648006358,
          -55.500312298691185
        ]
      }
    },
    {
      "type": "Feature",
      "properties": {
        "norad_id": 38068,
        "name": "COSMOS 2251 DEB",
        "group": "cosmos-2251-debris",
        "lat": -74.01005871619822,
        "lon": -138.5412437229951,
        "alt_km": 790.3344885423858,
        "timestamp": "2025-12-10T11:33:53.782037+00:00",
        "meta_object_name": "COSMOS 2251 DEB",
        "meta_object_id": "1993-036BSA",
        "meta_epoch": "2025-11-26T00:12:22.263264",
        "meta_mean_motion": 14.35960004,
        "meta_eccentricity": 0.00240903,
        "meta_inclination": 74.0219,
        "meta_ra_of_asc_node": 338.9788,
        "meta_arg_of_pericenter": 72.1007,
        "meta_mean_anomaly": 288.2769,
        "meta_ephemeris_type": 0,
        "meta_classification_type": "U",
        "meta_norad_cat_id": 38068,
        "meta_element_set_no": 999,
        "meta_rev_at_epoch": 66406,
        "meta_bstar": 0.00028750999,
        "meta_mean_motion_dot": 8.11e-06,
        "meta_mean_motion_ddot": 0,
        "tle_line1": "1 38068U 93036BSA 25330.00859101  .00000811  00000+0  28751-3 0  9998",
        "tle_line2": "2 38068  74.0219 338.9788 0024090  72.1007 288.2769 14.35960004664064"
      },
      "geometry": {
        "type": "Point",
        "coordinates": [
          -138.5412437229951,
          -74.01005871619822
        ]
      }
    },
    {
      "type": "Feature",
      "properties": {
        "norad_id": 38197,
        "name": "COSMOS 2251 DEB",
        "group": "cosmos-2251-debris",
        "lat": -45.408729800113754,
        "lon": -15.510071284948447,
        "alt_km": 627.7061792828963,
        "timestamp": "2025-12-10T11:33:53.782047+00:00",
        "meta_object_name": "COSMOS 2251 DEB",
        "meta_object_id": "1993-036BSM",
        "meta_epoch": "2025-12-08T19:03:08.420544",
        "meta_mean_motion": 14.73659772,
        "meta_eccentricity": 0.01272107,
        "meta_inclination": 73.9375,
        "meta_ra_of_asc_node": 4.7948,
        "meta_arg_of_pericenter": 243.2589,
        "meta_mean_anomaly": 115.552,
        "meta_ephemeris_type": 0,
        "meta_classification_type": "U",
        "meta_norad_cat_id": 38197,
        "meta_element_set_no": 999,
        "meta_rev_at_epoch": 85697,
        "meta_bstar": 0.0065046848,
        "meta_mean_motion_dot": 0.00048579,
        "meta_mean_motion_ddot": 0,
        "tle_line1": "1 38197U 93036BSM 25342.79384746  .00048579  00000+0  65047-2 0  9999",
        "tle_line2": "2 38197  73.9375   4.7948 0127210 243.2589 115.5520 14.73659772856977"
      },
      "geometry": {
        "type": "Point",
        "coordinates": [
          -15.510071284948447,
          -45.408729800113754
        ]
      }
    },
    {
      "type": "Feature",
      "properties": {
        "norad_id": 38199,
        "name": "COSMOS 2251 DEB",
        "group": "cosmos-2251-debris",
        "lat": -72.39067026860297,
        "lon": -49.06238542988528,
        "alt_km": 1016.1197150120124,
        "timestamp": "2025-12-10T11:33:53.782057+00:00",
        "meta_object_name": "COSMOS 2251 DEB",
        "meta_object_id": "1993-036BSP",
        "meta_epoch": "2025-12-09T13:08:57.601824",
        "meta_mean_motion": 13.64788419,
        "meta_eccentricity": 0.0369499,
        "meta_inclination": 73.956,
        "meta_ra_of_asc_node": 67.4327,
        "meta_arg_of_pericenter": 354.5631,
        "meta_mean_anomaly": 5.1515,
        "meta_ephemeris_type": 0,
        "meta_classification_type": "U",
        "meta_norad_cat_id": 38199,
        "meta_element_set_no": 999,
        "meta_rev_at_epoch": 60978,
        "meta_bstar": 0.00073909,
        "meta_mean_motion_dot": 9.26e-06,
        "meta_mean_motion_ddot": 0,
        "tle_line1": "1 38199U 93036BSP 25343.54788891  .00000926  00000+0  73909-3 0  9995",
        "tle_line2": "2 38199  73.9560  67.4327 0369499 354.5631   5.1515 13.64788419609786"
      },
      "geometry": {
        "type": "Point",
        "coordinates": [
          -49.06238542988528,
          -72.39067026860297
        ]
      }
    },
    {
      "type": "Feature",
      "properties": {
        "norad_id": 38208,
        "name": "COSMOS 2251 DEB",
        "group": "cosmos-2251-debris",
        "lat": 0.04720426940601501,
        "lon": -96.6198145612814,
        "alt_km": 618.4258891087147,
        "timestamp": "2025-12-10T11:33:53.782067+00:00",
        "meta_object_name": "COSMOS 2251 DEB",
        "meta_object_id": "1993-036BSY",
        "meta_epoch": "2025-12-09T13:47:05.669952",
        "meta_mean_motion": 14.8367688,
        "meta_eccentricity": 0.0002644,
        "meta_inclination": 74.0057,
        "meta_ra_of_asc_node": 85.1942,
        "meta_arg_of_pericenter": 169.4562,
        "meta_mean_anomaly": 205.1363,
        "meta_ephemeris_type": 0,
        "meta_classification_type": "U",
        "meta_norad_cat_id": 38208,
        "meta_element_set_no": 999,
        "meta_rev_at_epoch": 71112,
        "meta_bstar": 0.003526,
        "meta_mean_motion_dot": 0.00029227,
        "meta_mean_motion_ddot": 0,
        "tle_line1": "1 38208U 93036BSY 25343.57437118  .00029227  00000+0  35260-2 0  9994",
        "tle_line2": "2 38208  74.0057  85.1942 0002644 169.4562 205.1363 14.83676880711127"
      },
      "geometry": {
        "type": "Point",
        "coordinates": [
          -96.6198145612814,
          0.04720426940601501
        ]
      }
    },
    {
      "type": "Feature",
      "properties": {
        "norad_id": 38212,
        "name": "COSMOS 2251 DEB",
        "group": "cosmos-2251-debris",
        "lat": -0.9267754974214351,
        "lon": -98.706338910675,
        "alt_km": 584.2287316223674,
        "timestamp": "2025-12-10T11:33:53.782077+00:00",
        "meta_object_name": "COSMOS 2251 DEB",
        "meta_object_id": "1993-036BTC",
        "meta_epoch": "2025-12-08T13:15:26.464032",
        "meta_mean_motion": 14.77639869,
        "meta_eccentricity": 0.0092747,
        "meta_inclination": 74.0522,
        "meta_ra_of_asc_node": 84.8103,
        "meta_arg_of_pericenter": 153.0073,
        "meta_mean_anomaly": 207.5971,
        "meta_ephemeris_type": 0,
        "meta_classification_type": "U",
        "meta_norad_cat_id": 38212,
        "meta_element_set_no": 999,
        "meta_rev_at_epoch": 81248,
        "meta_bstar": 0.00080388,
        "meta_mean_motion_dot": 6.149e-05,
        "meta_mean_motion_ddot": 0,
        "tle_line1": "1 38212U 93036BTC 25342.55238963  .00006149  00000+0  80388-3 0  9993",
        "tle_line2": "2 38212  74.0522  84.8103 0092747 153.0073 207.5971 14.77639869812484"
      },
      "geometry": {
        "type": "Point",
        "coordinates": [
          -98.706338910675,
          -0.9267754974214351
        ]
      }
    },
    {
      "type": "Feature",
      "properties": {
        "norad_id": 38220,
        "name": "COSMOS 2251 DEB",
        "group": "cosmos-2251-debris",
        "lat": -25.125091249597553,
        "lon": -99.43530990207381,
        "alt_km": 597.4060809522243,
        "timestamp": "2025-12-10T11:33:53.782087+00:00",
        "meta_object_name": "COSMOS 2251 DEB",
        "meta_object_id": "1993-036BTL",
        "meta_epoch": "2025-12-09T13:44:00.256416",
        "meta_mean_motion": 14.92597011,
        "meta_eccentricity": 0.0004294,
        "meta_inclination": 74.0143,
        "meta_ra_of_asc_node": 74.6677,
        "meta_arg_of_pericenter": 60.9042,
        "meta_mean_anomaly": 299.257,
        "meta_ephemeris_type": 0,
        "meta_classification_type": "U",
        "meta_norad_cat_id": 38220,
        "meta_element_set_no": 999,
        "meta_rev_at_epoch": 71323,
        "meta_bstar": 0.0041515,
        "meta_mean_motion_dot": 0.00042967,
        "meta_mean_motion_ddot": 0,
        "tle_line1": "1 38220U 93036BTL 25343.57222519  .00042967  00000+0  41515-2 0  9991",
        "tle_line2": "2 38220  74.0143  74.6677 0004294  60.9042 299.2570 14.92597011713232"
      },
      "geometry": {
        "type": "Point",
        "coordinates": [
          -99.43530990207381,
          -25.125091249597553
        ]
      }
    }
  ]
}